{
  "norad_id": 54770,
  "name": "STARLINK-5448",
  "history": [
    {
      "epoch": "2026-03-28T21:03:28.156608Z",
      "apogee_km": 540.7267683563168,
      "perigee_km": 538.7558648239192,
      "latitude_deg": 5.72098417060676e-05,
      "longitude_deg": 161.00807342748192,
      "height_km": 540.6716389064394,
      "semi_major_axis_km": 6917.878316590118,
      "eccentricity": 0.00014245,
      "inclination_deg": 53.2185,
      "raan_deg": 303.1669,
      "arg_perigee_deg": 92.0119,
      "mean_anomaly_deg": 268.1037,
      "mean_motion_rev_day": 15.08840678
    },
    {
      "epoch": "2026-03-29T00:14:14.499456Z",
      "apogee_km": 540.7099596348035,
      "perigee_km": 538.7784871972253,
      "latitude_deg": -3.15602999146959e-06,
      "longitude_deg": 112.59015424848018,
      "height_km": 540.6713581823614,
      "semi_major_axis_km": 6917.881223416014,
      "eccentricity": 0.0001396,
      "inclination_deg": 53.2185,
      "raan_deg": 302.5727,
      "arg_perigee_deg": 91.8609,
      "mean_anomaly_deg": 268.2543,
      "mean_motion_rev_day": 15.08839727
    },
    {
      "epoch": "2026-03-29T20:54:15.446304Z",
      "apogee_km": 540.68449687871,
      "perigee_km": 538.8152838409333,
      "latitude_deg": 4.495060910665165e-06,
      "longitude_deg": 157.87165453201447,
      "height_km": 540.65773067741,
      "semi_major_axis_km": 6917.886890359821,
      "eccentricity": 0.0001351,
      "inclination_deg": 53.2182,
      "raan_deg": 298.7069,
      "arg_perigee_deg": 90.738,
      "mean_anomaly_deg": 269.3767,
      "mean_motion_rev_day": 15.08837873
    },
    {
      "epoch": "2026-03-30T06:26:34.201824Z",
      "apogee_km": 540.6757776034101,
      "perigee_km": 538.8132071903974,
      "latitude_deg": 4.8053525295168415e-05,
      "longitude_deg": 12.617705244108144,
      "height_km": 540.6433960171512,
      "semi_major_axis_km": 6917.881492396903,
      "eccentricity": 0.00013462,
      "inclination_deg": 53.2181,
      "raan_deg": 296.9228,
      "arg_perigee_deg": 90.1914,
      "mean_anomaly_deg": 269.9233,
      "mean_motion_rev_day": 15.08839639
    },
    {
      "epoch": "2026-03-30T14:23:30.173856Z",
      "apogee_km": 540.7231848166157,
      "perigee_km": 538.7910169942325,
      "latitude_deg": -8.294657480492907e-06,
      "longitude_deg": -108.42830201578515,
      "height_km": 540.6827998656814,
      "semi_major_axis_km": 6917.894100905424,
      "eccentricity": 0.00013965,
      "inclination_deg": 53.2186,
      "raan_deg": 295.4365,
      "arg_perigee_deg": 91.7745,
      "mean_anomaly_deg": 268.3407,
      "mean_motion_rev_day": 15.08835514
    },
    {
      "epoch": "2026-03-30T20:45:02.653920Z",
      "apogee_km": 540.7239147023683,
      "perigee_km": 538.7797112303724,
      "latitude_deg": -8.174732668831177e-06,
      "longitude_deg": 154.7359090160055,
      "height_km": 540.6777568340149,
      "semi_major_axis_km": 6917.88881296637,
      "eccentricity": 0.00014052,
      "inclination_deg": 53.2187,
      "raan_deg": 294.2472,
      "arg_perigee_deg": 91.778,
      "mean_anomaly_deg": 268.3373,
      "mean_motion_rev_day": 15.08837244
    }
  ]
}